[{"OBJECT_NAME":"SBSS (USA 216)","OBJECT_ID":"2010-048A","EPOCH":"2026-03-09T21:16:11.917056","MEAN_MOTION":15.1572421,"ECCENTRICITY":0.0082264,"INCLINATION":97.7474,"RA_OF_ASC_NODE":312.3885,"ARG_OF_PERICENTER":184.8326,"MEAN_ANOMALY":306.5835,"EPHEMERIS_TYPE":0,"CLASSIFICATION_TYPE":"U","NORAD_CAT_ID":37168,"ELEMENT_SET_NO":999,"REV_AT_EPOCH":83742,"BSTAR":0.00024191,"MEAN_MOTION_DOT":4.946e-5,"MEAN_MOTION_DDOT":0},{"OBJECT_NAME":"STARLINK-31012","OBJECT_ID":"2023-192A","EPOCH":"2026-03-09T05:03:33.506208","MEAN_MOTION":15.30194258,"ECCENTRICITY":0.00013249,"INCLINATION":53.1617,"RA_OF_ASC_NODE":64.8527,"ARG_OF_PERICENTER":92.8597,"MEAN_ANOMALY":267.2556,"EPHEMERIS_TYPE":0,"CLASSIFICATION_TYPE":"U","NORAD_CAT_ID":58531,"ELEMENT_SET_NO":999,"REV_AT_EPOCH":12591,"BSTAR":2.8406329e-5,"MEAN_MOTION_DOT":4.82e-6,"MEAN_MOTION_DDOT":0}]
